[{"OBJECT_NAME":"SHIYAN-1 (SY-1)","OBJECT_ID":"2004-012A","EPOCH":"2026-03-09T17:40:34.066560","MEAN_MOTION":15.31043463,"ECCENTRICITY":0.00058726,"INCLINATION":97.8764,"RA_OF_ASC_NODE":140.5238,"ARG_OF_PERICENTER":23.6952,"MEAN_ANOMALY":336.4557,"EPHEMERIS_TYPE":0,"CLASSIFICATION_TYPE":"U","NORAD_CAT_ID":28220,"ELEMENT_SET_NO":999,"REV_AT_EPOCH":19586,"BSTAR":0.00054854449,"MEAN_MOTION_DOT":0.00016393,"MEAN_MOTION_DDOT":0},{"OBJECT_NAME":"STARLINK-36362","OBJECT_ID":"2026-005W","EPOCH":"2026-03-09T22:00:01.999584","MEAN_MOTION":15.28371267,"ECCENTRICITY":0.00025187,"INCLINATION":42.9994,"RA_OF_ASC_NODE":236.7845,"ARG_OF_PERICENTER":281.2971,"MEAN_ANOMALY":317.6523,"EPHEMERIS_TYPE":0,"CLASSIFICATION_TYPE":"U","NORAD_CAT_ID":67424,"ELEMENT_SET_NO":999,"REV_AT_EPOCH":590,"BSTAR":0.0027312751,"MEAN_MOTION_DOT":0.0007755,"MEAN_MOTION_DDOT":0}]
